STARLINK-31229          
1 58986U 24031X   25270.17698572  .00000186  00000+0  18424-4 0  9994
2 58986  53.1605 336.5460 0001208  98.2926 261.8211 15.30185158 91471
STARLINK-31468          
1 58998U 24036A   25269.98713370  .00005003  00000+0  18083-3 0  9996
2 58998  53.1608 118.2321 0000819  83.1108 276.9986 15.30219770 90271
STARLINK-31440          
1 58999U 24036B   25269.98926006  .00000148  00000+0  17125-4 0  9991
2 58999  53.1604 118.2380 0000919  93.0091 267.1015 15.30192728 89451
STARLINK-31529          
1 59000U 24036C   25269.81073089 -.00000024  00000+0  11307-4 0  9991
2 59000  53.1604 117.1382 0001071  96.7880 263.3243 15.30191908 90183
STARLINK-31431          
1 59002U 24036E   25269.83764287 -.00001300  00000+0 -31811-4 0  9993
2 59002  53.1597 119.4323 0000914  79.7550 280.3553 15.30184111 90233
STARLINK-31435          
1 59004U 24036G   25269.01059140  .00004581  00000+0  16668-3 0  9994
2 59004  53.1581 122.7976 0000757 101.2175 258.8911 15.30199310 90121
STARLINK-31484          
1 59005U 24036H   25269.01375716  .00004758  00000+0  17266-3 0  9996
2 59005  53.1572 122.8153 0000667  63.3018 296.8051 15.30200298 90118
STARLINK-31450          
1 59006U 24036J   25270.00086664 -.00000013  00000+0  11672-4 0  9996
2 59006  53.1600 118.3092 0000880  87.0621 273.0480 15.30195099 90264
STARLINK-31456          
1 59007U 24036K   25269.73539394 -.00001608  00000+0 -42205-4 0  9996
2 59007  53.1602 119.4993 0000934  71.5815 288.5288 15.30184871 90221
STARLINK-31460          
1 59008U 24036L   25269.89558269  .00000317  00000+0  22861-4 0  9996
2 59008  53.1598 119.0818 0001351  56.1056 304.0074 15.30176388 90241
STARLINK-31488          
1 59009U 24036M   25269.01270451 -.00000689  00000+0 -11148-4 0  9995
2 59009  53.1582 122.8056 0000966  97.1961 262.9149 15.30185642 90116
STARLINK-31528          
1 59010U 24036N   25269.85135497 -.00004800  00000+0 -14999-3 0  9994
2 59010  53.1584 119.5100 0002312 159.5795 200.5298 15.30202209 90233
STARLINK-31491          
1 59011U 24036P   25269.85237316  .00004671  00000+0  16958-3 0  9999
2 59011  53.1594 119.5093 0000933  76.8473 283.2632 15.30227974 90233
STARLINK-31465          
1 59012U 24036Q   25269.84713581  .00000264  00000+0  21042-4 0  9997
2 59012  53.1601 119.4816 0001088 102.0003 258.1120 15.30190514 90230
STARLINK-31389          
1 59013U 24036R   25269.58903984  .00001364  00000+0  58193-4 0  9996
2 59013  53.1598 120.7166 0001372  67.8225 292.2922 15.30191282 90208
STARLINK-31454          
1 59014U 24036S   25269.84396730  .00000363  00000+0  24384-4 0  9994
2 59014  53.1592 119.4586 0000875 115.2505 244.8586 15.30190992 90239
