[{"OBJECT_NAME":"STARLINK-31229","OBJECT_ID":"2024-031X","EPOCH":"2025-09-27T04:14:51.566208","MEAN_MOTION":15.30185158,"ECCENTRICITY":0.00012089,"INCLINATION":53.1605,"RA_OF_ASC_NODE":336.546,"ARG_OF_PERICENTER":98.2926,"MEAN_ANOMALY":261.8211,"EPHEMERIS_TYPE":0,"CLASSIFICATION_TYPE":"U","NORAD_CAT_ID":58986,"ELEMENT_SET_NO":999,"REV_AT_EPOCH":9147,"BSTAR":1.8424189e-5,"MEAN_MOTION_DOT":1.86e-6,"MEAN_MOTION_DDOT":0},{"OBJECT_NAME":"STARLINK-31468","OBJECT_ID":"2024-036A","EPOCH":"2025-09-26T23:41:28.351680","MEAN_MOTION":15.3021977,"ECCENTRICITY":8.191e-5,"INCLINATION":53.1608,"RA_OF_ASC_NODE":118.2321,"ARG_OF_PERICENTER":83.1108,"MEAN_ANOMALY":276.9986,"EPHEMERIS_TYPE":0,"CLASSIFICATION_TYPE":"U","NORAD_CAT_ID":58998,"ELEMENT_SET_NO":999,"REV_AT_EPOCH":9027,"BSTAR":0.00018082685,"MEAN_MOTION_DOT":5.003e-5,"MEAN_MOTION_DDOT":0},{"OBJECT_NAME":"STARLINK-31440","OBJECT_ID":"2024-036B","EPOCH":"2025-09-26T23:44:32.069184","MEAN_MOTION":15.30192728,"ECCENTRICITY":9.192e-5,"INCLINATION":53.1604,"RA_OF_ASC_NODE":118.238,"ARG_OF_PERICENTER":93.0091,"MEAN_ANOMALY":267.1015,"EPHEMERIS_TYPE":0,"CLASSIFICATION_TYPE":"U","NORAD_CAT_ID":58999,"ELEMENT_SET_NO":999,"REV_AT_EPOCH":8945,"BSTAR":1.712541e-5,"MEAN_MOTION_DOT":1.48e-6,"MEAN_MOTION_DDOT":0},{"OBJECT_NAME":"STARLINK-31529","OBJECT_ID":"2024-036C","EPOCH":"2025-09-26T19:27:27.148896","MEAN_MOTION":15.30191908,"ECCENTRICITY":0.00010718,"INCLINATION":53.1604,"RA_OF_ASC_NODE":117.1382,"ARG_OF_PERICENTER":96.788,"MEAN_ANOMALY":263.3243,"EPHEMERIS_TYPE":0,"CLASSIFICATION_TYPE":"U","NORAD_CAT_ID":59000,"ELEMENT_SET_NO":999,"REV_AT_EPOCH":9018,"BSTAR":1.1307436e-5,"MEAN_MOTION_DOT":-2.4e-7,"MEAN_MOTION_DDOT":0},{"OBJECT_NAME":"STARLINK-31431","OBJECT_ID":"2024-036E","EPOCH":"2025-09-26T20:06:12.343968","MEAN_MOTION":15.30184111,"ECCENTRICITY":9.146e-5,"INCLINATION":53.1597,"RA_OF_ASC_NODE":119.4323,"ARG_OF_PERICENTER":79.755,"MEAN_ANOMALY":280.3553,"EPHEMERIS_TYPE":0,"CLASSIFICATION_TYPE":"U","NORAD_CAT_ID":59002,"ELEMENT_SET_NO":999,"REV_AT_EPOCH":9023,"BSTAR":-3.1811424e-5,"MEAN_MOTION_DOT":-1.3e-5,"MEAN_MOTION_DDOT":0},{"OBJECT_NAME":"STARLINK-31435","OBJECT_ID":"2024-036G","EPOCH":"2025-09-26T00:15:15.096960","MEAN_MOTION":15.3019931,"ECCENTRICITY":7.574e-5,"INCLINATION":53.1581,"RA_OF_ASC_NODE":122.7976,"ARG_OF_PERICENTER":101.2175,"MEAN_ANOMALY":258.8911,"EPHEMERIS_TYPE":0,"CLASSIFICATION_TYPE":"U","NORAD_CAT_ID":59004,"ELEMENT_SET_NO":999,"REV_AT_EPOCH":9012,"BSTAR":0.00016668336,"MEAN_MOTION_DOT":4.581e-5,"MEAN_MOTION_DDOT":0},{"OBJECT_NAME":"STARLINK-31484","OBJECT_ID":"2024-036H","EPOCH":"2025-09-26T00:19:48.618624","MEAN_MOTION":15.30200298,"ECCENTRICITY":6.675e-5,"INCLINATION":53.1572,"RA_OF_ASC_NODE":122.8153,"ARG_OF_PERICENTER":63.3018,"MEAN_ANOMALY":296.8051,"EPHEMERIS_TYPE":0,"CLASSIFICATION_TYPE":"U","NORAD_CAT_ID":59005,"ELEMENT_SET_NO":999,"REV_AT_EPOCH":9011,"BSTAR":0.00017266344,"MEAN_MOTION_DOT":4.758e-5,"MEAN_MOTION_DDOT":0},{"OBJECT_NAME":"STARLINK-31450","OBJECT_ID":"2024-036J","EPOCH":"2025-09-27T00:01:14.877696","MEAN_MOTION":15.30195099,"ECCENTRICITY":8.805e-5,"INCLINATION":53.16,"RA_OF_ASC_NODE":118.3092,"ARG_OF_PERICENTER":87.0621,"MEAN_ANOMALY":273.048,"EPHEMERIS_TYPE":0,"CLASSIFICATION_TYPE":"U","NORAD_CAT_ID":59006,"ELEMENT_SET_NO":999,"REV_AT_EPOCH":9026,"BSTAR":1.1671891e-5,"MEAN_MOTION_DOT":-1.3e-7,"MEAN_MOTION_DDOT":0},{"OBJECT_NAME":"STARLINK-31456","OBJECT_ID":"2024-036K","EPOCH":"2025-09-26T17:38:58.036416","MEAN_MOTION":15.30184871,"ECCENTRICITY":9.349e-5,"INCLINATION":53.1602,"RA_OF_ASC_NODE":119.4993,"ARG_OF_PERICENTER":71.5815,"MEAN_ANOMALY":288.5288,"EPHEMERIS_TYPE":0,"CLASSIFICATION_TYPE":"U","NORAD_CAT_ID":59007,"ELEMENT_SET_NO":999,"REV_AT_EPOCH":9022,"BSTAR":-4.2204839e-5,"MEAN_MOTION_DOT":-1.608e-5,"MEAN_MOTION_DDOT":0},{"OBJECT_NAME":"STARLINK-31460","OBJECT_ID":"2024-036L","EPOCH":"2025-09-26T21:29:38.344416","MEAN_MOTION":15.30176388,"ECCENTRICITY":0.0001351,"INCLINATION":53.1598,"RA_OF_ASC_NODE":119.0818,"ARG_OF_PERICENTER":56.1056,"MEAN_ANOMALY":304.0074,"EPHEMERIS_TYPE":0,"CLASSIFICATION_TYPE":"U","NORAD_CAT_ID":59008,"ELEMENT_SET_NO":999,"REV_AT_EPOCH":9024,"BSTAR":2.2860561e-5,"MEAN_MOTION_DOT":3.17e-6,"MEAN_MOTION_DDOT":0},{"OBJECT_NAME":"STARLINK-31488","OBJECT_ID":"2024-036M","EPOCH":"2025-09-26T00:18:17.669664","MEAN_MOTION":15.30185642,"ECCENTRICITY":9.664e-5,"INCLINATION":53.1582,"RA_OF_ASC_NODE":122.8056,"ARG_OF_PERICENTER":97.1961,"MEAN_ANOMALY":262.9149,"EPHEMERIS_TYPE":0,"CLASSIFICATION_TYPE":"U","NORAD_CAT_ID":59009,"ELEMENT_SET_NO":999,"REV_AT_EPOCH":9011,"BSTAR":-1.114832e-5,"MEAN_MOTION_DOT":-6.89e-6,"MEAN_MOTION_DDOT":0},{"OBJECT_NAME":"STARLINK-31528","OBJECT_ID":"2024-036N","EPOCH":"2025-09-26T20:25:57.069408","MEAN_MOTION":15.30202209,"ECCENTRICITY":0.0002312,"INCLINATION":53.1584,"RA_OF_ASC_NODE":119.51,"ARG_OF_PERICENTER":159.5795,"MEAN_ANOMALY":200.5298,"EPHEMERIS_TYPE":0,"CLASSIFICATION_TYPE":"U","NORAD_CAT_ID":59010,"ELEMENT_SET_NO":999,"REV_AT_EPOCH":9023,"BSTAR":-0.00014998858,"MEAN_MOTION_DOT":-4.8e-5,"MEAN_MOTION_DDOT":0},{"OBJECT_NAME":"STARLINK-31491","OBJECT_ID":"2024-036P","EPOCH":"2025-09-26T20:27:25.041024","MEAN_MOTION":15.30227974,"ECCENTRICITY":9.336e-5,"INCLINATION":53.1594,"RA_OF_ASC_NODE":119.5093,"ARG_OF_PERICENTER":76.8473,"MEAN_ANOMALY":283.2632,"EPHEMERIS_TYPE":0,"CLASSIFICATION_TYPE":"U","NORAD_CAT_ID":59011,"ELEMENT_SET_NO":999,"REV_AT_EPOCH":9023,"BSTAR":0.00016958256,"MEAN_MOTION_DOT":4.671e-5,"MEAN_MOTION_DDOT":0},{"OBJECT_NAME":"STARLINK-31465","OBJECT_ID":"2024-036Q","EPOCH":"2025-09-26T20:19:52.533984","MEAN_MOTION":15.30190514,"ECCENTRICITY":0.00010882,"INCLINATION":53.1601,"RA_OF_ASC_NODE":119.4816,"ARG_OF_PERICENTER":102.0003,"MEAN_ANOMALY":258.112,"EPHEMERIS_TYPE":0,"CLASSIFICATION_TYPE":"U","NORAD_CAT_ID":59012,"ELEMENT_SET_NO":999,"REV_AT_EPOCH":9023,"BSTAR":2.1041752e-5,"MEAN_MOTION_DOT":2.64e-6,"MEAN_MOTION_DDOT":0},{"OBJECT_NAME":"STARLINK-31389","OBJECT_ID":"2024-036R","EPOCH":"2025-09-26T14:08:13.042176","MEAN_MOTION":15.30191282,"ECCENTRICITY":0.00013727,"INCLINATION":53.1598,"RA_OF_ASC_NODE":120.7166,"ARG_OF_PERICENTER":67.8225,"MEAN_ANOMALY":292.2922,"EPHEMERIS_TYPE":0,"CLASSIFICATION_TYPE":"U","NORAD_CAT_ID":59013,"ELEMENT_SET_NO":999,"REV_AT_EPOCH":9020,"BSTAR":5.8192694e-5,"MEAN_MOTION_DOT":1.364e-5,"MEAN_MOTION_DDOT":0},{"OBJECT_NAME":"STARLINK-31454","OBJECT_ID":"2024-036S","EPOCH":"2025-09-26T20:15:18.774720","MEAN_MOTION":15.30190992,"ECCENTRICITY":8.759e-5,"INCLINATION":53.1592,"RA_OF_ASC_NODE":119.4586,"ARG_OF_PERICENTER":115.2505,"MEAN_ANOMALY":244.8586,"EPHEMERIS_TYPE":0,"CLASSIFICATION_TYPE":"U","NORAD_CAT_ID":59014,"ELEMENT_SET_NO":999,"REV_AT_EPOCH":9023,"BSTAR":2.4383953e-5,"MEAN_MOTION_DOT":3.63e-6,"MEAN_MOTION_DDOT":0}]
